{
"type": "FeatureCollection",
"name": "OC_TIGO",
"crs": { "type": "name", "properties": { "name": "urn:ogc:def:crs:OGC:1.3:CRS84" } },
"features": [
{ "type": "Feature", "properties": { "Site Holde": 55000164, "Oficinas C": "CIUDAD DEL ESTE" }, "geometry": { "type": "Point", "coordinates": [ -70.549737454884806, -33.561886886657298 ] } },
{ "type": "Feature", "properties": { "Site Holde": 30019944, "Oficinas C": "TRAI" }, "geometry": { "type": "Point", "coordinates": [ -72.669490702664106, -38.249485282155398 ] } },
{ "type": "Feature", "properties": { "Site Holde": 173, "Oficinas C": "PRIN" }, "geometry": { "type": "Point", "coordinates": [ -70.658164004782506, -33.443935069724802 ] } },
{ "type": "Feature", "properties": { "Site Holde": 30542678, "Oficinas C": "ASAN" }, "geometry": { "type": "Point", "coordinates": [ -71.563275263737495, -33.048366181661102 ] } },
{ "type": "Feature", "properties": { "Site Holde": 35383335, "Oficinas C": "SCRU" }, "geometry": { "type": "Point", "coordinates": [ -71.365385782229893, -34.641654749623498 ] } },
{ "type": "Feature", "properties": { "Site Holde": 30665411, "Oficinas C": "SOSS" }, "geometry": { "type": "Point", "coordinates": [ -71.582746114950197, -33.057501894277301 ] } },
{ "type": "Feature", "properties": { "Site Holde": 41831113, "Oficinas C": "LEST" }, "geometry": { "type": "Point", "coordinates": [ -71.654547592450996, -34.206023056505003 ] } },
{ "type": "Feature", "properties": { "Site Holde": 37094327, "Oficinas C": "BELL" }, "geometry": { "type": "Point", "coordinates": [ -70.626022285155997, -33.430156510730299 ] } },
{ "type": "Feature", "properties": { "Site Holde": 37144394, "Oficinas C": "COLM" }, "geometry": { "type": "Point", "coordinates": [ -72.701102849255506, -36.487159641397398 ] } },
{ "type": "Feature", "properties": { "Site Holde": 30829920, "Oficinas C": "MIRA" }, "geometry": { "type": "Point", "coordinates": [ -71.514615490069005, -33.020817469715197 ] } },
{ "type": "Feature", "properties": { "Site Holde": 29827975, "Oficinas C": "SANT" }, "geometry": { "type": "Point", "coordinates": [ -71.608193896237793, -33.579675582786599 ] } },
{ "type": "Feature", "properties": { "Site Holde": 157, "Oficinas C": "MAES" }, "geometry": { "type": "Point", "coordinates": [ -70.696035263463997, -33.616434030651398 ] } },
{ "type": "Feature", "properties": { "Site Holde": 101, "Oficinas C": "FONT" }, "geometry": { "type": "Point", "coordinates": [ -70.670087455170204, -33.353779854287602 ] } },
{ "type": "Feature", "properties": { "Site Holde": 113, "Oficinas C": "LACO" }, "geometry": { "type": "Point", "coordinates": [ -70.698493620192806, -33.2462941422068 ] } },
{ "type": "Feature", "properties": { "Site Holde": 184, "Oficinas C": "RAN6" }, "geometry": { "type": "Point", "coordinates": [ -70.711741005, -34.162171005 ] } },
{ "type": "Feature", "properties": { "Site Holde": 32756989, "Oficinas C": "QLPU" }, "geometry": { "type": "Point", "coordinates": [ -71.442944864477099, -33.048454868627502 ] } },
{ "type": "Feature", "properties": { "Site Holde": 36668870, "Oficinas C": "VALE" }, "geometry": { "type": "Point", "coordinates": [ -71.742421478650797, -35.675906841352102 ] } },
{ "type": "Feature", "properties": { "Site Holde": 207, "Oficinas C": "TALA" }, "geometry": { "type": "Point", "coordinates": [ -70.925712323354006, -33.664267761990601 ] } },
{ "type": "Feature", "properties": { "Site Holde": 34852679, "Oficinas C": "NANC" }, "geometry": { "type": "Point", "coordinates": [ -71.198187504852001, -34.650950608279899 ] } },
{ "type": "Feature", "properties": { "Site Holde": 28621382, "Oficinas C": "COLI" }, "geometry": { "type": "Point", "coordinates": [ -70.677929415695502, -33.204422275998098 ] } },
{ "type": "Feature", "properties": { "Site Holde": 32466638, "Oficinas C": "SCLE" }, "geometry": { "type": "Point", "coordinates": [ -71.487192949888197, -35.536630745336801 ] } },
{ "type": "Feature", "properties": { "Site Holde": 34019844, "Oficinas C": "CAUQ" }, "geometry": { "type": "Point", "coordinates": [ -72.313332414561003, -35.966202861745799 ] } },
{ "type": "Feature", "properties": { "Site Holde": 36076013, "Oficinas C": "SMAR" }, "geometry": { "type": "Point", "coordinates": [ -70.655899892389002, -32.748527304578701 ] } },
{ "type": "Feature", "properties": { "Site Holde": 121, "Oficinas C": "LCAN" }, "geometry": { "type": "Point", "coordinates": [ -70.580150798838602, -33.522263501035503 ] } },
{ "type": "Feature", "properties": { "Site Holde": 36040547, "Oficinas C": "PERQ" }, "geometry": { "type": "Point", "coordinates": [ -72.376762977362006, -38.418997466548397 ] } },
{ "type": "Feature", "properties": { "Site Holde": 210, "Oficinas C": "TEM4" }, "geometry": { "type": "Point", "coordinates": [ -72.636364875, -38.755892805 ] } },
{ "type": "Feature", "properties": { "Site Holde": 35059008, "Oficinas C": "BULN" }, "geometry": { "type": "Point", "coordinates": [ -72.297344424020494, -36.743977686600097 ] } },
{ "type": "Feature", "properties": { "Site Holde": 215, "Oficinas C": "TVOT" }, "geometry": { "type": "Point", "coordinates": [ -70.764750957304102, -33.506006676604599 ] } },
{ "type": "Feature", "properties": { "Site Holde": 31952256, "Oficinas C": "ANDA" }, "geometry": { "type": "Point", "coordinates": [ -71.086740299967303, -30.234328610576199 ] } },
{ "type": "Feature", "properties": { "Site Holde": 36754252, "Oficinas C": "SRLJ" }, "geometry": { "type": "Point", "coordinates": [ -72.712888324870505, -37.280199105717699 ] } },
{ "type": "Feature", "properties": { "Site Holde": 36555152, "Oficinas C": "LONG" }, "geometry": { "type": "Point", "coordinates": [ -71.6818771351479, -35.964949504909399 ] } },
{ "type": "Feature", "properties": { "Site Holde": 70538393, "Oficinas C": "PICH" }, "geometry": { "type": "Point", "coordinates": [ -71.525126266255299, -32.141390205066003 ] } },
{ "type": "Feature", "properties": { "Site Holde": 36673590, "Oficinas C": "EREC" }, "geometry": { "type": "Point", "coordinates": [ -73.069550595071107, -36.8647797690342 ] } },
{ "type": "Feature", "properties": { "Site Holde": 72, "Oficinas C": "CHEN" }, "geometry": { "type": "Point", "coordinates": [ -70.569476166056305, -33.552449311572097 ] } },
{ "type": "Feature", "properties": { "Site Holde": 71396766, "Oficinas C": "QUEP" }, "geometry": { "type": "Point", "coordinates": [ -72.614193855874504, -38.868914845118503 ] } },
{ "type": "Feature", "properties": { "Site Holde": 28840409, "Oficinas C": "PICA" }, "geometry": { "type": "Point", "coordinates": [ -69.328588194335694, -20.490282954621801 ] } },
{ "type": "Feature", "properties": { "Site Holde": 70509972, "Oficinas C": "LSAU" }, "geometry": { "type": "Point", "coordinates": [ -72.832051184769597, -37.9830448853346 ] } },
{ "type": "Feature", "properties": { "Site Holde": 37359891, "Oficinas C": "ROME" }, "geometry": { "type": "Point", "coordinates": [ -71.126215968732495, -34.960265943621799 ] } },
{ "type": "Feature", "properties": { "Site Holde": 156, "Oficinas C": "MACU" }, "geometry": { "type": "Point", "coordinates": [ -70.568146509046002, -33.507256288153798 ] } },
{ "type": "Feature", "properties": { "Site Holde": 53736536, "Oficinas C": "BIND" }, "geometry": { "type": "Point", "coordinates": [ -70.3851300726879, -23.0811666020664 ] } },
{ "type": "Feature", "properties": { "Site Holde": 53986218, "Oficinas C": "SNIC" }, "geometry": { "type": "Point", "coordinates": [ -72.217055756530399, -36.5024607618031 ] } },
{ "type": "Feature", "properties": { "Site Holde": 162, "Oficinas C": "MQUI" }, "geometry": { "type": "Point", "coordinates": [ -70.731475144739093, -33.3559845909923 ] } },
{ "type": "Feature", "properties": { "Site Holde": 27260599, "Oficinas C": "QLLT" }, "geometry": { "type": "Point", "coordinates": [ -71.244307391450505, -32.878869233932903 ] } },
{ "type": "Feature", "properties": { "Site Holde": 107, "Oficinas C": "IQU1" }, "geometry": { "type": "Point", "coordinates": [ -70.149128914374103, -20.2132253142811 ] } },
{ "type": "Feature", "properties": { "Site Holde": 131, "Oficinas C": "LHAC" }, "geometry": { "type": "Point", "coordinates": [ -70.574217734699303, -33.489140593842599 ] } },
{ "type": "Feature", "properties": { "Site Holde": 38216942, "Oficinas C": "LUNI" }, "geometry": { "type": "Point", "coordinates": [ -73.082485174121203, -40.290491254006398 ] } },
{ "type": "Feature", "properties": { "Site Holde": 36484630, "Oficinas C": "PIES" }, "geometry": { "type": "Point", "coordinates": [ -73.157828380893903, -36.950771094074298 ] } },
{ "type": "Feature", "properties": { "Site Holde": 46120964, "Oficinas C": "SCRM" }, "geometry": { "type": "Point", "coordinates": [ -70.292582605411596, -23.6260252143435 ] } },
{ "type": "Feature", "properties": { "Site Holde": 28769780, "Oficinas C": "EMON" }, "geometry": { "type": "Point", "coordinates": [ -70.985107206714801, -33.681207896749001 ] } },
{ "type": "Feature", "properties": { "Site Holde": 39865455, "Oficinas C": "LCHM" }, "geometry": { "type": "Point", "coordinates": [ -70.390150157938393, -23.563296111563002 ] } },
{ "type": "Feature", "properties": { "Site Holde": 99, "Oficinas C": "ESAL" }, "geometry": { "type": "Point", "coordinates": [ -70.644115547511703, -33.406013486425003 ] } },
{ "type": "Feature", "properties": { "Site Holde": 31245556, "Oficinas C": "MATU" }, "geometry": { "type": "Point", "coordinates": [ -71.371799625516601, -33.057319239341197 ] } },
{ "type": "Feature", "properties": { "Site Holde": 76, "Oficinas C": "CHIP" }, "geometry": { "type": "Point", "coordinates": [ -70.673692005, -33.465396015 ] } },
{ "type": "Feature", "properties": { "Site Holde": 174, "Oficinas C": "PROV" }, "geometry": { "type": "Point", "coordinates": [ -70.602303015, -33.422315025 ] } },
{ "type": "Feature", "properties": { "Site Holde": 30542903, "Oficinas C": "SAIN" }, "geometry": { "type": "Point", "coordinates": [ -71.538400458851996, -33.0052449049399 ] } },
{ "type": "Feature", "properties": { "Site Holde": 41907489, "Oficinas C": "LANC" }, "geometry": { "type": "Point", "coordinates": [ -72.774064689732, -39.452556895976301 ] } },
{ "type": "Feature", "properties": { "Site Holde": 71728879, "Oficinas C": "LSOR" }, "geometry": { "type": "Point", "coordinates": [ -70.774636653979897, -33.277809193413397 ] } },
{ "type": "Feature", "properties": { "Site Holde": 29389406, "Oficinas C": "LOS DAMASCOS 153" }, "geometry": { "type": "Point", "coordinates": [ -73.154870929876594, -40.554956328114201 ] } },
{ "type": "Feature", "properties": { "Site Holde": 32567677, "Oficinas C": "MLNA" }, "geometry": { "type": "Point", "coordinates": [ -71.278658813705704, -35.113596505161802 ] } },
{ "type": "Feature", "properties": { "Site Holde": 163, "Oficinas C": "NUNO" }, "geometry": { "type": "Point", "coordinates": [ -70.572391242304604, -33.448488792484198 ] } },
{ "type": "Feature", "properties": { "Site Holde": 55, "Oficinas C": "ANT4" }, "geometry": { "type": "Point", "coordinates": [ -70.405812710523605, -23.672850219195801 ] } },
{ "type": "Feature", "properties": { "Site Holde": 100, "Oficinas C": "FERR" }, "geometry": { "type": "Point", "coordinates": [ -70.738845015, -33.494225025 ] } },
{ "type": "Feature", "properties": { "Site Holde": 63, "Oficinas C": "BUEN" }, "geometry": { "type": "Point", "coordinates": [ -70.708317323866197, -33.323891383209599 ] } },
{ "type": "Feature", "properties": { "Site Holde": 36931216, "Oficinas C": "LPEN" }, "geometry": { "type": "Point", "coordinates": [ -73.124201484127497, -36.714283306155103 ] } },
{ "type": "Feature", "properties": { "Site Holde": 34649522, "Oficinas C": "LHI2" }, "geometry": { "type": "Point", "coordinates": [ -73.092227540222098, -36.750147769824103 ] } },
{ "type": "Feature", "properties": { "Site Holde": 29613653, "Oficinas C": "HOSP" }, "geometry": { "type": "Point", "coordinates": [ -70.747420416825605, -33.8656651830592 ] } },
{ "type": "Feature", "properties": { "Site Holde": 28889531, "Oficinas C": "PITA" }, "geometry": { "type": "Point", "coordinates": [ -70.631696519263301, -33.4369311960358 ] } },
{ "type": "Feature", "properties": { "Site Holde": 30499778, "Oficinas C": "VALM" }, "geometry": { "type": "Point", "coordinates": [ -71.372598368192001, -33.044059723818002 ] } },
{ "type": "Feature", "properties": { "Site Holde": 32124054, "Oficinas C": "RSIM" }, "geometry": { "type": "Point", "coordinates": [ -72.0614677215261, -45.580175800233803 ] } },
{ "type": "Feature", "properties": { "Site Holde": 38153158, "Oficinas C": "PORV" }, "geometry": { "type": "Point", "coordinates": [ -70.365556249293107, -53.2952599213504 ] } },
{ "type": "Feature", "properties": { "Site Holde": 92, "Oficinas C": "EABR" }, "geometry": { "type": "Point", "coordinates": [ -70.777901025, -33.544023015 ] } },
{ "type": "Feature", "properties": { "Site Holde": 50, "Oficinas C": "AGUS" }, "geometry": { "type": "Point", "coordinates": [ -70.675419041682801, -33.446876424064598 ] } },
{ "type": "Feature", "properties": { "Site Holde": 221, "Oficinas C": "YUNG" }, "geometry": { "type": "Point", "coordinates": [ -70.704862438241307, -33.428078895618803 ] } },
{ "type": "Feature", "properties": { "Site Holde": 38738401, "Oficinas C": "MLCH" }, "geometry": { "type": "Point", "coordinates": [ -72.245342081910195, -37.720728176305201 ] } },
{ "type": "Feature", "properties": { "Site Holde": 51325980, "Oficinas C": "HUEP" }, "geometry": { "type": "Point", "coordinates": [ -71.9429020084021, -37.239177629636302 ] } },
{ "type": "Feature", "properties": { "Site Holde": 71586989, "Oficinas C": "KAOV" }, "geometry": { "type": "Point", "coordinates": [ -70.728417315271201, -33.368998167080399 ] } },
{ "type": "Feature", "properties": { "Site Holde": 31252303, "Oficinas C": "PHON" }, "geometry": { "type": "Point", "coordinates": [ -71.473873496021795, -33.040803321204798 ] } },
{ "type": "Feature", "properties": { "Site Holde": 154, "Oficinas C": "LSIL" }, "geometry": { "type": "Point", "coordinates": [ -70.572218025, -33.585340005 ] } },
{ "type": "Feature", "properties": { "Site Holde": 28544455, "Oficinas C": "PCAS" }, "geometry": { "type": "Point", "coordinates": [ -72.597043069517994, -38.761483571575901 ] } },
{ "type": "Feature", "properties": { "Site Holde": 211, "Oficinas C": "TILT" }, "geometry": { "type": "Point", "coordinates": [ -70.929538343720296, -33.084824866583197 ] } },
{ "type": "Feature", "properties": { "Site Holde": 70596414, "Oficinas C": "NTOL" }, "geometry": { "type": "Point", "coordinates": [ -73.166764638663295, -39.1777216732429 ] } },
{ "type": "Feature", "properties": { "Site Holde": 34921751, "Oficinas C": "ETAB" }, "geometry": { "type": "Point", "coordinates": [ -71.665196762277802, -33.456924176216098 ] } },
{ "type": "Feature", "properties": { "Site Holde": 89, "Oficinas C": "CVIE" }, "geometry": { "type": "Point", "coordinates": [ -70.528677015, -33.608452005 ] } },
{ "type": "Feature", "properties": { "Site Holde": 108, "Oficinas C": "IQU3" }, "geometry": { "type": "Point", "coordinates": [ -70.135837005, -20.233599015 ] } },
{ "type": "Feature", "properties": { "Site Holde": 29890292, "Oficinas C": "ALGR" }, "geometry": { "type": "Point", "coordinates": [ -71.669272131395203, -33.365001501530799 ] } },
{ "type": "Feature", "properties": { "Site Holde": 49203117, "Oficinas C": "LAVE" }, "geometry": { "type": "Point", "coordinates": [ -71.667618527656401, -33.104357893670198 ] } },
{ "type": "Feature", "properties": { "Site Holde": 40644474, "Oficinas C": "LICA" }, "geometry": { "type": "Point", "coordinates": [ -71.981615318957296, -34.986160732544903 ] } },
{ "type": "Feature", "properties": { "Site Holde": 53, "Oficinas C": "ANT1" }, "geometry": { "type": "Point", "coordinates": [ -70.398268044839398, -23.6521796685483 ] } },
{ "type": "Feature", "properties": { "Site Holde": 70589489, "Oficinas C": "HUAL" }, "geometry": { "type": "Point", "coordinates": [ -71.804415089986506, -34.975952604763201 ] } },
{ "type": "Feature", "properties": { "Site Holde": 80, "Oficinas C": "CNCN" }, "geometry": { "type": "Point", "coordinates": [ -71.521500015, -32.925542025 ] } },
{ "type": "Feature", "properties": { "Site Holde": 120, "Oficinas C": "LBPI" }, "geometry": { "type": "Point", "coordinates": [ -70.610996025, -33.384559005 ] } },
{ "type": "Feature", "properties": { "Site Holde": 180, "Oficinas C": "QVES" }, "geometry": { "type": "Point", "coordinates": [ -70.752946005, -33.379702005 ] } },
{ "type": "Feature", "properties": { "Site Holde": 185, "Oficinas C": "RDAM" }, "geometry": { "type": "Point", "coordinates": [ -73.128619360923196, -40.576357834698101 ] } },
{ "type": "Feature", "properties": { "Site Holde": 70483362, "Oficinas C": "VPAI" }, "geometry": { "type": "Point", "coordinates": [ -70.859824230960896, -33.8115930199546 ] } },
{ "type": "Feature", "properties": { "Site Holde": 128, "Oficinas C": "LFLO" }, "geometry": { "type": "Point", "coordinates": [ -70.602086025, -33.505910025 ] } },
{ "type": "Feature", "properties": { "Site Holde": 32533293, "Oficinas C": "MPAT" }, "geometry": { "type": "Point", "coordinates": [ -70.956700057561505, -30.695208401137201 ] } },
{ "type": "Feature", "properties": { "Site Holde": 117, "Oficinas C": "LANG" }, "geometry": { "type": "Point", "coordinates": [ -72.352723005, -37.469624025 ] } },
{ "type": "Feature", "properties": { "Site Holde": 192, "Oficinas C": "SBER" }, "geometry": { "type": "Point", "coordinates": [ -70.705944983443899, -33.591594555716298 ] } },
{ "type": "Feature", "properties": { "Site Holde": 147, "Oficinas C": "LPLA" }, "geometry": { "type": "Point", "coordinates": [ -70.585568085, -33.474313515 ] } },
{ "type": "Feature", "properties": { "Site Holde": 217, "Oficinas C": "UAME" }, "geometry": { "type": "Point", "coordinates": [ -70.673260005, -33.451632015 ] } },
{ "type": "Feature", "properties": { "Site Holde": 46120964, "Oficinas C": "SCRM" }, "geometry": { "type": "Point", "coordinates": [ -70.292582605411596, -23.6260252143435 ] } },
{ "type": "Feature", "properties": { "Site Holde": 30021755, "Oficinas C": "VILC" }, "geometry": { "type": "Point", "coordinates": [ -72.224920934867598, -38.670693790403298 ] } },
{ "type": "Feature", "properties": { "Site Holde": 29890494, "Oficinas C": "VCTR" }, "geometry": { "type": "Point", "coordinates": [ -72.333031340230704, -38.2343040021766 ] } },
{ "type": "Feature", "properties": { "Site Holde": 137, "Oficinas C": "LINA" }, "geometry": { "type": "Point", "coordinates": [ -71.594267294414493, -35.845840790958 ] } },
{ "type": "Feature", "properties": { "Site Holde": 176, "Oficinas C": "PUD1" }, "geometry": { "type": "Point", "coordinates": [ -70.793914343422003, -33.403607977879197 ] } },
{ "type": "Feature", "properties": { "Site Holde": 183, "Oficinas C": "RAN5" }, "geometry": { "type": "Point", "coordinates": [ -70.740031820920095, -34.153802428631998 ] } },
{ "type": "Feature", "properties": { "Site Holde": 134, "Oficinas C": "LHMA" }, "geometry": { "type": "Point", "coordinates": [ -70.790451015, -33.539225025 ] } },
{ "type": "Feature", "properties": { "Site Holde": 85, "Oficinas C": "COQU" }, "geometry": { "type": "Point", "coordinates": [ -71.339967122090798, -29.958462902705001 ] } },
{ "type": "Feature", "properties": { "Site Holde": 36992741, "Oficinas C": "SFLA" }, "geometry": { "type": "Point", "coordinates": [ -72.581209472191205, -37.466263882726501 ] } },
{ "type": "Feature", "properties": { "Site Holde": 212, "Oficinas C": "TMUN" }, "geometry": { "type": "Point", "coordinates": [ -70.292738985, -18.444765495 ] } },
{ "type": "Feature", "properties": { "Site Holde": 31860108, "Oficinas C": "TONG" }, "geometry": { "type": "Point", "coordinates": [ -71.498322865829095, -30.252837006879101 ] } },
{ "type": "Feature", "properties": { "Site Holde": 49253148, "Oficinas C": "HUAS" }, "geometry": { "type": "Point", "coordinates": [ -71.221949736469497, -28.465873484804899 ] } },
{ "type": "Feature", "properties": { "Site Holde": 31145940, "Oficinas C": "LORE" }, "geometry": { "type": "Point", "coordinates": [ -70.814711448021001, -33.639356711664597 ] } },
{ "type": "Feature", "properties": { "Site Holde": 159, "Oficinas C": "MAIP" }, "geometry": { "type": "Point", "coordinates": [ -70.719217005, -33.507872025 ] } },
{ "type": "Feature", "properties": { "Site Holde": 31153094, "Oficinas C": "LIRA" }, "geometry": { "type": "Point", "coordinates": [ -70.729638943861005, -33.242959292143297 ] } },
{ "type": "Feature", "properties": { "Site Holde": 28889178, "Oficinas C": "TALC" }, "geometry": { "type": "Point", "coordinates": [ -73.109268892839594, -36.7174971132604 ] } },
{ "type": "Feature", "properties": { "Site Holde": 158, "Oficinas C": "MAGI" }, "geometry": { "type": "Point", "coordinates": [ -70.756446455845406, -33.486514437159002 ] } },
{ "type": "Feature", "properties": { "Site Holde": 220, "Oficinas C": "VPER" }, "geometry": { "type": "Point", "coordinates": [ -72.950107035, -41.473516995 ] } },
{ "type": "Feature", "properties": { "Site Holde": 70480141, "Oficinas C": "PILL" }, "geometry": { "type": "Point", "coordinates": [ -72.449586807798596, -38.635027477987798 ] } },
{ "type": "Feature", "properties": { "Site Holde": 91, "Oficinas C": "DEPA" }, "geometry": { "type": "Point", "coordinates": [ -70.664923621555204, -33.502151052314296 ] } },
{ "type": "Feature", "properties": { "Site Holde": 148, "Oficinas C": "LREI" }, "geometry": { "type": "Point", "coordinates": [ -70.544140005, -33.444569025 ] } },
{ "type": "Feature", "properties": { "Site Holde": 64, "Oficinas C": "BUIN" }, "geometry": { "type": "Point", "coordinates": [ -70.735080780421796, -33.732719737948798 ] } },
{ "type": "Feature", "properties": { "Site Holde": 54361126, "Oficinas C": "PUDA" }, "geometry": { "type": "Point", "coordinates": [ -70.7950024822768, -33.407089533763603 ] } },
{ "type": "Feature", "properties": { "Site Holde": 29812589, "Oficinas C": "MCOL" }, "geometry": { "type": "Point", "coordinates": [ -70.701059747126195, -33.269330211226098 ] } },
{ "type": "Feature", "properties": { "Site Holde": 32121634, "Oficinas C": "CURM" }, "geometry": { "type": "Point", "coordinates": [ -70.688760483749206, -32.787011801432698 ] } },
{ "type": "Feature", "properties": { "Site Holde": 208, "Oficinas C": "TEM1" }, "geometry": { "type": "Point", "coordinates": [ -72.590960466786697, -38.738926316446403 ] } },
{ "type": "Feature", "properties": { "Site Holde": 35808781, "Oficinas C": "PERA" }, "geometry": { "type": "Point", "coordinates": [ -71.478034074122206, -34.479460791539402 ] } },
{ "type": "Feature", "properties": { "Site Holde": 32463214, "Oficinas C": "COMB" }, "geometry": { "type": "Point", "coordinates": [ -71.003621830394295, -31.1791183547545 ] } },
{ "type": "Feature", "properties": { "Site Holde": 127, "Oficinas C": "LFER" }, "geometry": { "type": "Point", "coordinates": [ -70.669016471527101, -33.479702808107703 ] } },
{ "type": "Feature", "properties": { "Site Holde": 56, "Oficinas C": "ANT6" }, "geometry": { "type": "Point", "coordinates": [ -70.393238025, -23.571867015 ] } },
{ "type": "Feature", "properties": { "Site Holde": 29539049, "Oficinas C": "PAIN" }, "geometry": { "type": "Point", "coordinates": [ -70.742355899654896, -33.8109192582411 ] } },
{ "type": "Feature", "properties": { "Site Holde": 30095036, "Oficinas C": "CRCT" }, "geometry": { "type": "Point", "coordinates": [ -71.893027494753994, -38.437672274875801 ] } },
{ "type": "Feature", "properties": { "Site Holde": 35244260, "Oficinas C": "CRHU" }, "geometry": { "type": "Point", "coordinates": [ -73.344043637241001, -37.476280459284503 ] } },
{ "type": "Feature", "properties": { "Site Holde": 30479116, "Oficinas C": "ARLE" }, "geometry": { "type": "Point", "coordinates": [ -71.549715070483202, -33.023867922914 ] } },
{ "type": "Feature", "properties": { "Site Holde": 36919596, "Oficinas C": "PENC" }, "geometry": { "type": "Point", "coordinates": [ -72.993773731718804, -36.736807632977701 ] } },
{ "type": "Feature", "properties": { "Site Holde": 70661662, "Oficinas C": "BAQU" }, "geometry": { "type": "Point", "coordinates": [ -69.840717243553797, -23.332123637929499 ] } },
{ "type": "Feature", "properties": { "Site Holde": 111, "Oficinas C": "IRAR" }, "geometry": { "type": "Point", "coordinates": [ -70.599915735, -33.455651415 ] } },
{ "type": "Feature", "properties": { "Site Holde": 28307330, "Oficinas C": "LPNT" }, "geometry": { "type": "Point", "coordinates": [ -70.746031667382894, -33.273282316273999 ] } },
{ "type": "Feature", "properties": { "Site Holde": 29393011, "Oficinas C": "UCD REPU" }, "geometry": { "type": "Point", "coordinates": [ -73.149797492983794, -40.573350247822603 ] } },
{ "type": "Feature", "properties": { "Site Holde": 36487781, "Oficinas C": "PAIH" }, "geometry": { "type": "Point", "coordinates": [ -70.516702144985501, -30.0296764488658 ] } },
{ "type": "Feature", "properties": { "Site Holde": 29878916, "Oficinas C": "ANGO" }, "geometry": { "type": "Point", "coordinates": [ -72.711453369226803, -37.798461569961603 ] } },
{ "type": "Feature", "properties": { "Site Holde": 131, "Oficinas C": "LHAC" }, "geometry": { "type": "Point", "coordinates": [ -70.574217734699303, -33.489140593842599 ] } },
{ "type": "Feature", "properties": { "Site Holde": 52182620, "Oficinas C": "MIPO" }, "geometry": { "type": "Point", "coordinates": [ -70.774806764276704, -33.729490521370003 ] } },
{ "type": "Feature", "properties": { "Site Holde": 31153094, "Oficinas C": "LIRA" }, "geometry": { "type": "Point", "coordinates": [ -70.729638943861005, -33.242959292143297 ] } },
{ "type": "Feature", "properties": { "Site Holde": 40756769, "Oficinas C": "COLT" }, "geometry": { "type": "Point", "coordinates": [ -71.083128667771902, -34.289629785526998 ] } },
{ "type": "Feature", "properties": { "Site Holde": 35268529, "Oficinas C": "COR1" }, "geometry": { "type": "Point", "coordinates": [ -73.147740433320294, -37.028071126773199 ] } },
{ "type": "Feature", "properties": { "Site Holde": 31886380, "Oficinas C": "ILLA" }, "geometry": { "type": "Point", "coordinates": [ -71.167060533431197, -31.632345218178202 ] } },
{ "type": "Feature", "properties": { "Site Holde": 112, "Oficinas C": "JJPE" }, "geometry": { "type": "Point", "coordinates": [ -70.741219005, -33.432271005 ] } },
{ "type": "Feature", "properties": { "Site Holde": 37169982, "Oficinas C": "COIH" }, "geometry": { "type": "Point", "coordinates": [ -71.831056805704407, -36.622414974756701 ] } },
{ "type": "Feature", "properties": { "Site Holde": 37617095, "Oficinas C": "CHAN" }, "geometry": { "type": "Point", "coordinates": [ -70.621937877843806, -26.346065572833702 ] } },
{ "type": "Feature", "properties": { "Site Holde": 178, "Oficinas C": "QNTR" }, "geometry": { "type": "Point", "coordinates": [ -71.529022745410799, -32.785960056976101 ] } },
{ "type": "Feature", "properties": { "Site Holde": 37493440, "Oficinas C": "DALM" }, "geometry": { "type": "Point", "coordinates": [ -70.043231401744194, -26.390575435500299 ] } },
{ "type": "Feature", "properties": { "Site Holde": 167, "Oficinas C": "PANC" }, "geometry": { "type": "Point", "coordinates": [ -71.640195141369105, -33.033096005435098 ] } },
{ "type": "Feature", "properties": { "Site Holde": 93, "Oficinas C": "EARR" }, "geometry": { "type": "Point", "coordinates": [ -70.479458085, -33.360385155 ] } },
{ "type": "Feature", "properties": { "Site Holde": 30828126, "Oficinas C": "GCAR" }, "geometry": { "type": "Point", "coordinates": [ -71.514514634079006, -33.002385897891799 ] } },
{ "type": "Feature", "properties": { "Site Holde": 153, "Oficinas C": "LSE4" }, "geometry": { "type": "Point", "coordinates": [ -71.241344655, -29.880107085 ] } },
{ "type": "Feature", "properties": { "Site Holde": 34653132, "Oficinas C": "VICU" }, "geometry": { "type": "Point", "coordinates": [ -70.711512273866703, -30.0326895313835 ] } },
{ "type": "Feature", "properties": { "Site Holde": 83, "Oficinas C": "COP1" }, "geometry": { "type": "Point", "coordinates": [ -70.333533243254806, -27.3659517347768 ] } },
{ "type": "Feature", "properties": { "Site Holde": 35383135, "Oficinas C": "SVTT" }, "geometry": { "type": "Point", "coordinates": [ -71.076983515755103, -34.440253832593697 ] } },
{ "type": "Feature", "properties": { "Site Holde": 31623567, "Oficinas C": "TALT_NO OCUPAR" }, "geometry": { "type": "Point", "coordinates": [ -70.487566674375401, -25.407226868683601 ] } },
{ "type": "Feature", "properties": { "Site Holde": 39445022, "Oficinas C": "VNON" }, "geometry": { "type": "Point", "coordinates": [ -73.007433736217806, -36.832059955040101 ] } },
{ "type": "Feature", "properties": { "Site Holde": 94, "Oficinas C": "ECOR" }, "geometry": { "type": "Point", "coordinates": [ -70.679433015, -33.377931015 ] } },
{ "type": "Feature", "properties": { "Site Holde": 30847074, "Oficinas C": "HIJU" }, "geometry": { "type": "Point", "coordinates": [ -71.143298739922002, -32.8013190166103 ] } },
{ "type": "Feature", "properties": { "Site Holde": 32599362, "Oficinas C": "CHIM" }, "geometry": { "type": "Point", "coordinates": [ -71.044905470808601, -34.7109179711914 ] } },
{ "type": "Feature", "properties": { "Site Holde": 29910569, "Oficinas C": "PTRU" }, "geometry": { "type": "Point", "coordinates": [ -72.638752447778899, -38.985617306712101 ] } },
{ "type": "Feature", "properties": { "Site Holde": 33423399, "Oficinas C": "LCRU" }, "geometry": { "type": "Point", "coordinates": [ -71.603977214100198, -33.507841486990202 ] } },
{ "type": "Feature", "properties": { "Site Holde": 35647341, "Oficinas C": "GRAN" }, "geometry": { "type": "Point", "coordinates": [ -70.727695863676203, -34.0647953285239 ] } },
{ "type": "Feature", "properties": { "Site Holde": 36953031, "Oficinas C": "FLRD" }, "geometry": { "type": "Point", "coordinates": [ -72.661760197794393, -36.824852144548203 ] } },
{ "type": "Feature", "properties": { "Site Holde": 90, "Oficinas C": "DENR" }, "geometry": { "type": "Point", "coordinates": [ -70.736338365, -34.131830205 ] } },
{ "type": "Feature", "properties": { "Site Holde": 37319480, "Oficinas C": "COIN" }, "geometry": { "type": "Point", "coordinates": [ -70.949373812580802, -34.270104142421197 ] } },
{ "type": "Feature", "properties": { "Site Holde": 29832091, "Oficinas C": "VDUL" }, "geometry": { "type": "Point", "coordinates": [ -71.504337380063902, -33.037065798813501 ] } },
{ "type": "Feature", "properties": { "Site Holde": 31886764, "Oficinas C": "TROM" }, "geometry": { "type": "Point", "coordinates": [ -72.653030337797304, -38.712156235249701 ] } },
{ "type": "Feature", "properties": { "Site Holde": 71327966, "Oficinas C": "GUAN" }, "geometry": { "type": "Point", "coordinates": [ -71.420310379718799, -30.199507402463201 ] } },
{ "type": "Feature", "properties": { "Site Holde": 37156729, "Oficinas C": "QUIR" }, "geometry": { "type": "Point", "coordinates": [ -72.542257532010893, -36.282584985426602 ] } },
{ "type": "Feature", "properties": { "Site Holde": 70672507, "Oficinas C": "RIOC" }, "geometry": { "type": "Point", "coordinates": [ -71.2574976472347, -35.281746786696402 ] } },
{ "type": "Feature", "properties": { "Site Holde": 37254108, "Oficinas C": "SGOR" }, "geometry": { "type": "Point", "coordinates": [ -69.319178386288897, -22.891536863708101 ] } },
{ "type": "Feature", "properties": { "Site Holde": 28164147, "Oficinas C": "CHLL" }, "geometry": { "type": "Point", "coordinates": [ -72.102275806983101, -36.607280095926797 ] } },
{ "type": "Feature", "properties": { "Site Holde": 35702452, "Oficinas C": "LALM" }, "geometry": { "type": "Point", "coordinates": [ -73.460595121220095, -37.627351446956197 ] } },
{ "type": "Feature", "properties": { "Site Holde": 31263668, "Oficinas C": "PTDO" }, "geometry": { "type": "Point", "coordinates": [ -70.717633526373803, -32.6313410390418 ] } },
{ "type": "Feature", "properties": { "Site Holde": 34620500, "Oficinas C": "TOME" }, "geometry": { "type": "Point", "coordinates": [ -72.957186758250103, -36.619559632629198 ] } },
{ "type": "Feature", "properties": { "Site Holde": 29834988, "Oficinas C": "LIMA" }, "geometry": { "type": "Point", "coordinates": [ -71.267531348196798, -33.001345914862299 ] } },
{ "type": "Feature", "properties": { "Site Holde": 35812988, "Oficinas C": "LARO" }, "geometry": { "type": "Point", "coordinates": [ -70.605658492409205, -33.575692944443801 ] } },
{ "type": "Feature", "properties": { "Site Holde": 34441210, "Oficinas C": "RCIE" }, "geometry": { "type": "Point", "coordinates": [ -70.932042522259806, -53.182742582171898 ] } },
{ "type": "Feature", "properties": { "Site Holde": 42233417, "Oficinas C": "FRUT" }, "geometry": { "type": "Point", "coordinates": [ -73.032471934928097, -41.132598434652401 ] } },
{ "type": "Feature", "properties": { "Site Holde": 41752714, "Oficinas C": "QTIL" }, "geometry": { "type": "Point", "coordinates": [ -70.964716268490093, -34.3546397456793 ] } },
{ "type": "Feature", "properties": { "Site Holde": 37187886, "Oficinas C": "TMAV" }, "geometry": { "type": "Point", "coordinates": [ -72.908434776282306, -37.1620016831139 ] } },
{ "type": "Feature", "properties": { "Site Holde": 105, "Oficinas C": "INDE" }, "geometry": { "type": "Point", "coordinates": [ -70.653012015, -33.421473015 ] } },
{ "type": "Feature", "properties": { "Site Holde": 30671491, "Oficinas C": "LLAY" }, "geometry": { "type": "Point", "coordinates": [ -70.950691319725806, -32.841412813837401 ] } },
{ "type": "Feature", "properties": { "Site Holde": 28151307, "Oficinas C": "LCOR" }, "geometry": { "type": "Point", "coordinates": [ -73.139642773995305, -36.887330122331598 ] } },
{ "type": "Feature", "properties": { "Site Holde": 60, "Oficinas C": "ARI6" }, "geometry": { "type": "Point", "coordinates": [ -70.292715295347193, -18.4446435855345 ] } },
{ "type": "Feature", "properties": { "Site Holde": 204, "Oficinas C": "STER" }, "geometry": { "type": "Point", "coordinates": [ -70.691819025, -34.176273015 ] } },
{ "type": "Feature", "properties": { "Site Holde": 126, "Oficinas C": "LESP" }, "geometry": { "type": "Point", "coordinates": [ -70.686720015, -33.515350005 ] } },
{ "type": "Feature", "properties": { "Site Holde": 35064493, "Oficinas C": "RENG" }, "geometry": { "type": "Point", "coordinates": [ -70.859267723104097, -34.406997756417901 ] } },
{ "type": "Feature", "properties": { "Site Holde": 30094962, "Oficinas C": "LNCH" }, "geometry": { "type": "Point", "coordinates": [ -72.630793119360007, -39.371144130663403 ] } },
{ "type": "Feature", "properties": { "Site Holde": 70688573, "Oficinas C": "DONH" }, "geometry": { "type": "Point", "coordinates": [ -70.966980958952703, -34.226342865595498 ] } },
{ "type": "Feature", "properties": { "Site Holde": 31834795, "Oficinas C": "ELME" }, "geometry": { "type": "Point", "coordinates": [ -71.212403032435901, -32.692400892134103 ] } },
{ "type": "Feature", "properties": { "Site Holde": 35743773, "Oficinas C": "CLAR" }, "geometry": { "type": "Point", "coordinates": [ -70.624210393468303, -32.8611480215448 ] } },
{ "type": "Feature", "properties": { "Site Holde": 29389406, "Oficinas C": "LOS DAMASCOS 153" }, "geometry": { "type": "Point", "coordinates": [ -73.154870929876594, -40.554956328114201 ] } },
{ "type": "Feature", "properties": { "Site Holde": 36574100, "Oficinas C": "COR2" }, "geometry": { "type": "Point", "coordinates": [ -73.162722338288404, -36.992972547830298 ] } },
{ "type": "Feature", "properties": { "Site Holde": 45685168, "Oficinas C": "ROSR" }, "geometry": { "type": "Point", "coordinates": [ -70.840725368410006, -34.3482044104843 ] } },
{ "type": "Feature", "properties": { "Site Holde": 164, "Oficinas C": "OVAL" }, "geometry": { "type": "Point", "coordinates": [ -71.201968245, -30.602775165 ] } },
{ "type": "Feature", "properties": { "Site Holde": 139, "Oficinas C": "LNEG" }, "geometry": { "type": "Point", "coordinates": [ -70.316648237675395, -23.782359284665802 ] } },
{ "type": "Feature", "properties": { "Site Holde": 37067297, "Oficinas C": "TIRU" }, "geometry": { "type": "Point", "coordinates": [ -73.493677918742705, -38.343285124316203 ] } },
{ "type": "Feature", "properties": { "Site Holde": 103, "Oficinas C": "HUEC" }, "geometry": { "type": "Point", "coordinates": [ -70.651912005, -33.371092005 ] } },
{ "type": "Feature", "properties": { "Site Holde": 119, "Oficinas C": "LBLA" }, "geometry": { "type": "Point", "coordinates": [ -70.673537025, -33.588117015 ] } },
{ "type": "Feature", "properties": { "Site Holde": 30483933, "Oficinas C": "CASA" }, "geometry": { "type": "Point", "coordinates": [ -71.409694546324104, -33.317978584388499 ] } },
{ "type": "Feature", "properties": { "Site Holde": 30911355, "Oficinas C": "PNAT" }, "geometry": { "type": "Point", "coordinates": [ -72.504170846787702, -51.726269457902099 ] } },
{ "type": "Feature", "properties": { "Site Holde": 51, "Oficinas C": "AHO2" }, "geometry": { "type": "Point", "coordinates": [ -70.102555590887505, -20.273046071872098 ] } },
{ "type": "Feature", "properties": { "Site Holde": 28866486, "Oficinas C": "NIMP" }, "geometry": { "type": "Point", "coordinates": [ -72.952880007207796, -38.745541963086701 ] } },
{ "type": "Feature", "properties": { "Site Holde": 40678819, "Oficinas C": "PELE" }, "geometry": { "type": "Point", "coordinates": [ -70.893128739222504, -34.466304650108 ] } },
{ "type": "Feature", "properties": { "Site Holde": 37216129, "Oficinas C": "HLQI" }, "geometry": { "type": "Point", "coordinates": [ -72.937378531599705, -36.975163940130201 ] } },
{ "type": "Feature", "properties": { "Site Holde": 37217760, "Oficinas C": "TOCN" }, "geometry": { "type": "Point", "coordinates": [ -68.000376148181104, -23.189978198672399 ] } },
{ "type": "Feature", "properties": { "Site Holde": 57, "Oficinas C": "APOQ" }, "geometry": { "type": "Point", "coordinates": [ -70.557160425811404, -33.4081535189015 ] } },
{ "type": "Feature", "properties": { "Site Holde": 189, "Oficinas C": "RESA" }, "geometry": { "type": "Point", "coordinates": [ -70.617699015, -33.387295005 ] } },
{ "type": "Feature", "properties": { "Site Holde": 31264149, "Oficinas C": "LGLO" }, "geometry": { "type": "Point", "coordinates": [ -70.591406404895594, -32.852214578277902 ] } },
{ "type": "Feature", "properties": { "Site Holde": 190, "Oficinas C": "RMAI" }, "geometry": { "type": "Point", "coordinates": [ -70.622162914591001, -33.618290025 ] } },
{ "type": "Feature", "properties": { "Site Holde": 36999943, "Oficinas C": "VILL" }, "geometry": { "type": "Point", "coordinates": [ -73.037987768161102, -36.866915286580301 ] } },
{ "type": "Feature", "properties": { "Site Holde": 66, "Oficinas C": "CCOL" }, "geometry": { "type": "Point", "coordinates": [ -70.731169325689706, -33.407603096812103 ] } },
{ "type": "Feature", "properties": { "Site Holde": 31584463, "Oficinas C": "MOLC" }, "geometry": { "type": "Point", "coordinates": [ -72.117557957166397, -39.300510304974203 ] } },
{ "type": "Feature", "properties": { "Site Holde": 35565347, "Oficinas C": "PIRQ" }, "geometry": { "type": "Point", "coordinates": [ -70.572859070973493, -33.634362211497098 ] } },
{ "type": "Feature", "properties": { "Site Holde": 34288671, "Oficinas C": "OBUE" }, "geometry": { "type": "Point", "coordinates": [ -70.862423093305793, -53.056760577998404 ] } },
{ "type": "Feature", "properties": { "Site Holde": 30257270, "Oficinas C": "CAL4" }, "geometry": { "type": "Point", "coordinates": [ -68.922643234843605, -22.435781420604101 ] } },
{ "type": "Feature", "properties": { "Site Holde": 29867144, "Oficinas C": "RNAI" }, "geometry": { "type": "Point", "coordinates": [ -72.586521165947104, -37.669635068023602 ] } },
{ "type": "Feature", "properties": { "Site Holde": 124, "Oficinas C": "LDEH" }, "geometry": { "type": "Point", "coordinates": [ -70.521152025, -33.351792015 ] } },
{ "type": "Feature", "properties": { "Site Holde": 135, "Oficinas C": "LHRR" }, "geometry": { "type": "Point", "coordinates": [ -71.341190189123196, -29.978470728219499 ] } },
{ "type": "Feature", "properties": { "Site Holde": 30862715, "Oficinas C": "LABR" }, "geometry": { "type": "Point", "coordinates": [ -72.749488004671704, -38.765629822945002 ] } },
{ "type": "Feature", "properties": { "Site Holde": 79, "Oficinas C": "CIST" }, "geometry": { "type": "Point", "coordinates": [ -70.6657830752889, -33.540326474369003 ] } },
{ "type": "Feature", "properties": { "Site Holde": 37148378, "Oficinas C": "NINH" }, "geometry": { "type": "Point", "coordinates": [ -72.399223248144196, -36.398221983071203 ] } },
{ "type": "Feature", "properties": { "Site Holde": 194, "Oficinas C": "SFER" }, "geometry": { "type": "Point", "coordinates": [ -70.987886985, -34.587879015 ] } },
{ "type": "Feature", "properties": { "Site Holde": 34928879, "Oficinas C": "CHL3" }, "geometry": { "type": "Point", "coordinates": [ -72.129559862326502, -36.624387975681401 ] } },
{ "type": "Feature", "properties": { "Site Holde": 122, "Oficinas C": "LCNT" }, "geometry": { "type": "Point", "coordinates": [ -70.695049188506502, -33.3057293792533 ] } },
{ "type": "Feature", "properties": { "Site Holde": 42551155, "Oficinas C": "CHEP" }, "geometry": { "type": "Point", "coordinates": [ -71.276991076386096, -34.725822320612899 ] } },
{ "type": "Feature", "properties": { "Site Holde": 27330782, "Oficinas C": "BSUR" }, "geometry": { "type": "Point", "coordinates": [ -73.137586446802999, -36.836539735267699 ] } },
{ "type": "Feature", "properties": { "Site Holde": 39291794, "Oficinas C": "CABI" }, "geometry": { "type": "Point", "coordinates": [ -71.070600967409007, -32.428917914086703 ] } },
{ "type": "Feature", "properties": { "Site Holde": 125, "Oficinas C": "LERR" }, "geometry": { "type": "Point", "coordinates": [ -70.722613940993796, -33.4698997062956 ] } },
{ "type": "Feature", "properties": { "Site Holde": 61, "Oficinas C": "AVAR" }, "geometry": { "type": "Point", "coordinates": [ -70.6174529199143, -33.431503221513502 ] } },
{ "type": "Feature", "properties": { "Site Holde": 31027320, "Oficinas C": "MPIN" }, "geometry": { "type": "Point", "coordinates": [ -71.123883252929602, -33.516697646917102 ] } },
{ "type": "Feature", "properties": { "Site Holde": 133, "Oficinas C": "LHIG" }, "geometry": { "type": "Point", "coordinates": [ -73.096707267610299, -36.750454195683702 ] } },
{ "type": "Feature", "properties": { "Site Holde": 31066200, "Oficinas C": "ALHU" }, "geometry": { "type": "Point", "coordinates": [ -71.099121111590307, -34.034992471311902 ] } },
{ "type": "Feature", "properties": { "Site Holde": 86, "Oficinas C": "COST" }, "geometry": { "type": "Point", "coordinates": [ -72.978430793546593, -41.324029407200896 ] } },
{ "type": "Feature", "properties": { "Site Holde": 31607436, "Oficinas C": "SALA TELEFONICA    -  GALERIA TECNICA" }, "geometry": { "type": "Point", "coordinates": [ -70.794375331926204, -33.396902676678103 ] } },
{ "type": "Feature", "properties": { "Site Holde": 39559737, "Oficinas C": "TENO" }, "geometry": { "type": "Point", "coordinates": [ -71.163579635945297, -34.869594550248699 ] } },
{ "type": "Feature", "properties": { "Site Holde": 37233354, "Oficinas C": "YUMB" }, "geometry": { "type": "Point", "coordinates": [ -72.560951945845801, -37.099964036582698 ] } },
{ "type": "Feature", "properties": { "Site Holde": 70621803, "Oficinas C": "CPAS" }, "geometry": { "type": "Point", "coordinates": [ -72.993671793460294, -38.1937439968194 ] } },
{ "type": "Feature", "properties": { "Site Holde": 70, "Oficinas C": "CHAC" }, "geometry": { "type": "Point", "coordinates": [ -71.617551705, -33.045746205 ] } },
{ "type": "Feature", "properties": { "Site Holde": 170, "Oficinas C": "PHUR" }, "geometry": { "type": "Point", "coordinates": [ -70.813324601250997, -33.568264358212097 ] } },
{ "type": "Feature", "properties": { "Site Holde": 37238569, "Oficinas C": "LOHU" }, "geometry": { "type": "Point", "coordinates": [ -68.898803241017603, -22.452134236584101 ] } },
{ "type": "Feature", "properties": { "Site Holde": 186, "Oficinas C": "RECR" }, "geometry": { "type": "Point", "coordinates": [ -71.578739752151407, -33.031487025 ] } },
{ "type": "Feature", "properties": { "Site Holde": 35434045, "Oficinas C": "COND" }, "geometry": { "type": "Point", "coordinates": [ -71.2133996445761, -34.975710700556398 ] } },
{ "type": "Feature", "properties": { "Site Holde": 36475778, "Oficinas C": "ESAV" }, "geometry": { "type": "Point", "coordinates": [ -69.624836314329599, -26.247684778161101 ] } },
{ "type": "Feature", "properties": { "Site Holde": 59, "Oficinas C": "ARI5" }, "geometry": { "type": "Point", "coordinates": [ -70.318338915, -18.478375005 ] } },
{ "type": "Feature", "properties": { "Site Holde": 28465214, "Oficinas C": "PAR3" }, "geometry": { "type": "Point", "coordinates": [ -70.906477231584404, -53.159367706837998 ] } },
{ "type": "Feature", "properties": { "Site Holde": 152, "Oficinas C": "LSE3" }, "geometry": { "type": "Point", "coordinates": [ -71.267222985, -29.955249105 ] } },
{ "type": "Feature", "properties": { "Site Holde": 150, "Oficinas C": "LSAN" }, "geometry": { "type": "Point", "coordinates": [ -73.055426984375202, -36.794617403171799 ] } },
{ "type": "Feature", "properties": { "Site Holde": 62460445, "Oficinas C": "MIRS" }, "geometry": { "type": "Point", "coordinates": [ -71.645685544755693, -33.327719262491698 ] } },
{ "type": "Feature", "properties": { "Site Holde": 36584757, "Oficinas C": "LEBU" }, "geometry": { "type": "Point", "coordinates": [ -73.654595252350902, -37.607237884479801 ] } },
{ "type": "Feature", "properties": { "Site Holde": 28893906, "Oficinas C": "PNAB" }, "geometry": { "type": "Point", "coordinates": [ -71.350615474316797, -33.0474837275382 ] } },
{ "type": "Feature", "properties": { "Site Holde": 35547256, "Oficinas C": "LCAB" }, "geometry": { "type": "Point", "coordinates": [ -71.308305109127303, -34.289582151023801 ] } },
{ "type": "Feature", "properties": { "Site Holde": 205, "Oficinas C": "TAL2" }, "geometry": { "type": "Point", "coordinates": [ -71.660983955943095, -35.427671960146697 ] } },
{ "type": "Feature", "properties": { "Site Holde": 213, "Oficinas C": "TORE" }, "geometry": { "type": "Point", "coordinates": [ -73.240125884600701, -39.815941346860598 ] } },
{ "type": "Feature", "properties": { "Site Holde": 53, "Oficinas C": "ANT1" }, "geometry": { "type": "Point", "coordinates": [ -70.398268044839398, -23.6521796685483 ] } },
{ "type": "Feature", "properties": { "Site Holde": 70538365, "Oficinas C": "SMPI" }, "geometry": { "type": "Point", "coordinates": [ -70.587725320146106, -33.647076487806601 ] } },
{ "type": "Feature", "properties": { "Site Holde": 30493047, "Oficinas C": "LLOL" }, "geometry": { "type": "Point", "coordinates": [ -71.615471804296405, -33.611629831944001 ] } },
{ "type": "Feature", "properties": { "Site Holde": 32237151, "Oficinas C": "PDVA" }, "geometry": { "type": "Point", "coordinates": [ -72.617944788797899, -38.721525699357301 ] } },
{ "type": "Feature", "properties": { "Site Holde": 30003188, "Oficinas C": "CALD" }, "geometry": { "type": "Point", "coordinates": [ -70.822459156849007, -27.066832475075401 ] } },
{ "type": "Feature", "properties": { "Site Holde": 30096526, "Oficinas C": "CUNC" }, "geometry": { "type": "Point", "coordinates": [ -72.030882772225695, -38.932881674544902 ] } },
{ "type": "Feature", "properties": { "Site Holde": 37146065, "Oficinas C": "ECAR" }, "geometry": { "type": "Point", "coordinates": [ -72.028453329685306, -36.898860921514299 ] } },
{ "type": "Feature", "properties": { "Site Holde": 114, "Oficinas C": "LACR" }, "geometry": { "type": "Point", "coordinates": [ -70.721929702011593, -34.150371448744501 ] } },
{ "type": "Feature", "properties": { "Site Holde": 115, "Oficinas C": "LAN3" }, "geometry": { "type": "Point", "coordinates": [ -72.339658455642905, -37.449881747634301 ] } },
{ "type": "Feature", "properties": { "Site Holde": 41817155, "Oficinas C": "PEUM" }, "geometry": { "type": "Point", "coordinates": [ -71.172882566009903, -34.387952799179402 ] } },
{ "type": "Feature", "properties": { "Site Holde": 165, "Oficinas C": "PAJA" }, "geometry": { "type": "Point", "coordinates": [ -70.746275025, -33.482447025 ] } },
{ "type": "Feature", "properties": { "Site Holde": 38764261, "Oficinas C": "CURE" }, "geometry": { "type": "Point", "coordinates": [ -72.018220348607102, -35.091935331187898 ] } },
{ "type": "Feature", "properties": { "Site Holde": 32469657, "Oficinas C": "PUNI" }, "geometry": { "type": "Point", "coordinates": [ -71.257176523902899, -30.8342618483798 ] } },
{ "type": "Feature", "properties": { "Site Holde": 84, "Oficinas C": "COP2" }, "geometry": { "type": "Point", "coordinates": [ -70.306395716332105, -27.386407744225298 ] } },
{ "type": "Feature", "properties": { "Site Holde": 218, "Oficinas C": "VALL" }, "geometry": { "type": "Point", "coordinates": [ -70.757504627108602, -28.577763638874099 ] } },
{ "type": "Feature", "properties": { "Site Holde": 98, "Oficinas C": "EPEN" }, "geometry": { "type": "Point", "coordinates": [ -70.557565005, -33.574393005 ] } },
{ "type": "Feature", "properties": { "Site Holde": 54, "Oficinas C": "ANT3" }, "geometry": { "type": "Point", "coordinates": [ -70.390151865, -23.595364845 ] } },
{ "type": "Feature", "properties": { "Site Holde": 67, "Oficinas C": "CCOL2" }, "geometry": { "type": "Point", "coordinates": [ -70.731975255, -33.404030805 ] } },
{ "type": "Feature", "properties": { "Site Holde": 200, "Oficinas C": "SNCA" }, "geometry": { "type": "Point", "coordinates": [ -70.567385025, -33.600024015 ] } },
{ "type": "Feature", "properties": { "Site Holde": 206, "Oficinas C": "TAL4" }, "geometry": { "type": "Point", "coordinates": [ -71.636023847673499, -35.431749569978102 ] } },
{ "type": "Feature", "properties": { "Site Holde": 70261106, "Oficinas C": "LVER" }, "geometry": { "type": "Point", "coordinates": [ -70.469773266628096, -33.588603154892603 ] } },
{ "type": "Feature", "properties": { "Site Holde": 37151441, "Oficinas C": "PORT" }, "geometry": { "type": "Point", "coordinates": [ -72.427564245052906, -36.527654800483603 ] } },
{ "type": "Feature", "properties": { "Site Holde": 30493027, "Oficinas C": "CART" }, "geometry": { "type": "Point", "coordinates": [ -71.602183811900701, -33.5479628283504 ] } },
{ "type": "Feature", "properties": { "Site Holde": 130, "Oficinas C": "LGRA" }, "geometry": { "type": "Point", "coordinates": [ -70.683593025, -33.569786025 ] } },
{ "type": "Feature", "properties": { "Site Holde": 34635139, "Oficinas C": "CABR" }, "geometry": { "type": "Point", "coordinates": [ -72.402460407334303, -37.033370751447301 ] } },
{ "type": "Feature", "properties": { "Site Holde": 37201238, "Oficinas C": "SRLA" }, "geometry": { "type": "Point", "coordinates": [ -70.766584504517795, -33.244296132942601 ] } },
{ "type": "Feature", "properties": { "Site Holde": 97, "Oficinas C": "ENAC" }, "geometry": { "type": "Point", "coordinates": [ -70.614386812772196, -33.471106773885097 ] } },
{ "type": "Feature", "properties": { "Site Holde": 47262374, "Oficinas C": "SAFE" }, "geometry": { "type": "Point", "coordinates": [ -71.246754752708398, -34.972851516301297 ] } },
{ "type": "Feature", "properties": { "Site Holde": 30198262, "Oficinas C": "MATN" }, "geometry": { "type": "Point", "coordinates": [ -71.431949882585002, -32.645996126409599 ] } },
{ "type": "Feature", "properties": { "Site Holde": 169, "Oficinas C": "PAR2" }, "geometry": { "type": "Point", "coordinates": [ -70.8952937275171, -53.1419858252357 ] } },
{ "type": "Feature", "properties": { "Site Holde": 70778114, "Oficinas C": "MELE" }, "geometry": { "type": "Point", "coordinates": [ -69.662966684667396, -22.3454499401143 ] } },
{ "type": "Feature", "properties": { "Site Holde": 191, "Oficinas C": "SALE" }, "geometry": { "type": "Point", "coordinates": [ -70.631570025, -33.494758005 ] } },
{ "type": "Feature", "properties": { "Site Holde": 31139934, "Oficinas C": "CTAN" }, "geometry": { "type": "Point", "coordinates": [ -70.766262794528203, -33.6297881755753 ] } },
{ "type": "Feature", "properties": { "Site Holde": 31244608, "Oficinas C": "QVER" }, "geometry": { "type": "Point", "coordinates": [ -71.643573334679004, -33.055478930329997 ] } },
{ "type": "Feature", "properties": { "Site Holde": 102, "Oficinas C": "GMIS" }, "geometry": { "type": "Point", "coordinates": [ -70.583452005, -33.560746005 ] } },
{ "type": "Feature", "properties": { "Site Holde": 136, "Oficinas C": "LIBE" }, "geometry": { "type": "Point", "coordinates": [ -71.549746928468096, -33.016763305471798 ] } },
{ "type": "Feature", "properties": { "Site Holde": 30095039, "Oficinas C": "COLL" }, "geometry": { "type": "Point", "coordinates": [ -72.441401172226904, -37.955354816281996 ] } },
{ "type": "Feature", "properties": { "Site Holde": 30095218, "Oficinas C": "CARH" }, "geometry": { "type": "Point", "coordinates": [ -73.165794324336005, -38.712789576250401 ] } },
{ "type": "Feature", "properties": { "Site Holde": 70630547, "Oficinas C": "LTIL" }, "geometry": { "type": "Point", "coordinates": [ -70.704146169493796, -33.710313172781198 ] } },
{ "type": "Feature", "properties": { "Site Holde": 145, "Oficinas C": "LPIR" }, "geometry": { "type": "Point", "coordinates": [ -70.532550015, -33.502175025 ] } },
{ "type": "Feature", "properties": { "Site Holde": 37179460, "Oficinas C": "CONU" }, "geometry": { "type": "Point", "coordinates": [ -73.228447491070995, -38.014894229164298 ] } },
{ "type": "Feature", "properties": { "Site Holde": 175, "Oficinas C": "PSUR" }, "geometry": { "type": "Point", "coordinates": [ -70.727367918009904, -33.325958466433498 ] } },
{ "type": "Feature", "properties": { "Site Holde": 46375593, "Oficinas C": "POLP" }, "geometry": { "type": "Point", "coordinates": [ -70.887725804699798, -33.1673442091274 ] } },
{ "type": "Feature", "properties": { "Site Holde": 197, "Oficinas C": "SISA" }, "geometry": { "type": "Point", "coordinates": [ -70.633852423465598, -33.448378083858401 ] } },
{ "type": "Feature", "properties": { "Site Holde": 201, "Oficinas C": "SPED" }, "geometry": { "type": "Point", "coordinates": [ -73.107631764393105, -36.839779725928103 ] } },
{ "type": "Feature", "properties": { "Site Holde": 28840575, "Oficinas C": "POZO" }, "geometry": { "type": "Point", "coordinates": [ -69.786725932897795, -20.2590413483892 ] } },
{ "type": "Feature", "properties": { "Site Holde": 57592450, "Oficinas C": "LONT" }, "geometry": { "type": "Point", "coordinates": [ -71.272123631251105, -35.056829793654401 ] } },
{ "type": "Feature", "properties": { "Site Holde": 36583272, "Oficinas C": "DICH" }, "geometry": { "type": "Point", "coordinates": [ -72.936277993964097, -36.548266618574502 ] } },
{ "type": "Feature", "properties": { "Site Holde": 123, "Oficinas C": "LCON" }, "geometry": { "type": "Point", "coordinates": [ -70.586346976060099, -33.4154282233646 ] } },
{ "type": "Feature", "properties": { "Site Holde": 198, "Oficinas C": "SLUC" }, "geometry": { "type": "Point", "coordinates": [ -70.647138431668296, -33.439736019277802 ] } },
{ "type": "Feature", "properties": { "Site Holde": 54995619, "Oficinas C": "MARC" }, "geometry": { "type": "Point", "coordinates": [ -71.619830988067903, -34.395960880395002 ] } },
{ "type": "Feature", "properties": { "Site Holde": 71, "Oficinas C": "CHCU" }, "geometry": { "type": "Point", "coordinates": [ -70.668041895, -33.281379675 ] } },
{ "type": "Feature", "properties": { "Site Holde": 31899498, "Oficinas C": "CSOM" }, "geometry": { "type": "Point", "coordinates": [ -69.295317119197506, -52.776848274752702 ] } },
{ "type": "Feature", "properties": { "Site Holde": 42042390, "Oficinas C": "SRTA" }, "geometry": { "type": "Point", "coordinates": [ -70.539538353062696, -33.629831024322101 ] } },
{ "type": "Feature", "properties": { "Site Holde": 39289919, "Oficinas C": "LCRZ" }, "geometry": { "type": "Point", "coordinates": [ -71.226594893263595, -32.827022668259502 ] } },
{ "type": "Feature", "properties": { "Site Holde": 58, "Oficinas C": "ARI4" }, "geometry": { "type": "Point", "coordinates": [ -70.300472235, -18.477650025 ] } },
{ "type": "Feature", "properties": { "Site Holde": 69, "Oficinas C": "CESQ" }, "geometry": { "type": "Point", "coordinates": [ -71.255745797064904, -29.9352487411109 ] } },
{ "type": "Feature", "properties": { "Site Holde": 29990082, "Oficinas C": "LAMP" }, "geometry": { "type": "Point", "coordinates": [ -70.882544486592195, -33.277815731969199 ] } },
{ "type": "Feature", "properties": { "Site Holde": 39544909, "Oficinas C": "PETO" }, "geometry": { "type": "Point", "coordinates": [ -70.931309654642504, -32.251257201307602 ] } },
{ "type": "Feature", "properties": { "Site Holde": 37178924, "Oficinas C": "HFAM" }, "geometry": { "type": "Point", "coordinates": [ -70.800028036026205, -33.135312699181803 ] } },
{ "type": "Feature", "properties": { "Site Holde": 142, "Oficinas C": "LORI" }, "geometry": { "type": "Point", "coordinates": [ -70.723480604679096, -33.459928513581303 ] } },
{ "type": "Feature", "properties": { "Site Holde": 179, "Oficinas C": "QUIL" }, "geometry": { "type": "Point", "coordinates": [ -70.724484015, -33.368832144078901 ] } },
{ "type": "Feature", "properties": { "Site Holde": 31243334, "Oficinas C": "MONT" }, "geometry": { "type": "Point", "coordinates": [ -71.5376593331073, -32.934785936235997 ] } },
{ "type": "Feature", "properties": { "Site Holde": 37216453, "Oficinas C": "SPDA" }, "geometry": { "type": "Point", "coordinates": [ -68.194469015482795, -22.911489998137199 ] } },
{ "type": "Feature", "properties": { "Site Holde": 171, "Oficinas C": "PLAC" }, "geometry": { "type": "Point", "coordinates": [ -71.565876585, -33.116299065 ] } },
{ "type": "Feature", "properties": { "Site Holde": 219, "Oficinas C": "VITA" }, "geometry": { "type": "Point", "coordinates": [ -70.566527813128005, -33.388777459865601 ] } },
{ "type": "Feature", "properties": { "Site Holde": 37234536, "Oficinas C": "NACI" }, "geometry": { "type": "Point", "coordinates": [ -72.674608784583796, -37.502150775558299 ] } },
{ "type": "Feature", "properties": { "Site Holde": 70881391, "Oficinas C": "COLB" }, "geometry": { "type": "Point", "coordinates": [ -71.4026577900418, -35.696654257084901 ] } },
{ "type": "Feature", "properties": { "Site Holde": 52545647, "Oficinas C": "CCRE" }, "geometry": { "type": "Point", "coordinates": [ -70.703060084627793, -33.404433738717898 ] } },
{ "type": "Feature", "properties": { "Site Holde": 161, "Oficinas C": "MELI" }, "geometry": { "type": "Point", "coordinates": [ -71.215757346387903, -33.6843805096022 ] } },
{ "type": "Feature", "properties": { "Site Holde": 31147436, "Oficinas C": "LONQ" }, "geometry": { "type": "Point", "coordinates": [ -70.798275952021001, -33.6216595089602 ] } },
{ "type": "Feature", "properties": { "Site Holde": 33979062, "Oficinas C": "HAZA�A INDIGENA S/N" }, "geometry": { "type": "Point", "coordinates": [ -73.112369034468301, -40.5653883893509 ] } },
{ "type": "Feature", "properties": { "Site Holde": 52, "Oficinas C": "AHOS" }, "geometry": { "type": "Point", "coordinates": [ -70.095438015, -20.268487005 ] } },
{ "type": "Feature", "properties": { "Site Holde": 31889716, "Oficinas C": "LVIL" }, "geometry": { "type": "Point", "coordinates": [ -71.501140561756401, -31.911929350625201 ] } },
{ "type": "Feature", "properties": { "Site Holde": 31174893, "Oficinas C": "QUIS" }, "geometry": { "type": "Point", "coordinates": [ -71.693920895057005, -33.398061785861103 ] } },
{ "type": "Feature", "properties": { "Site Holde": 70869300, "Oficinas C": "LTAC" }, "geometry": { "type": "Point", "coordinates": [ -71.369041077064495, -30.087689618350201 ] } },
{ "type": "Feature", "properties": { "Site Holde": 75, "Oficinas C": "CHIL" }, "geometry": { "type": "Point", "coordinates": [ -70.644524025, -33.471060015 ] } },
{ "type": "Feature", "properties": { "Site Holde": 30601587, "Oficinas C": "SDOM" }, "geometry": { "type": "Point", "coordinates": [ -71.626452436647398, -33.6373182718878 ] } },
{ "type": "Feature", "properties": { "Site Holde": 54014818, "Oficinas C": "PEMU" }, "geometry": { "type": "Point", "coordinates": [ -72.099089950866798, -36.968064254232601 ] } },
{ "type": "Feature", "properties": { "Site Holde": 195, "Oficinas C": "SFRA" }, "geometry": { "type": "Point", "coordinates": [ -70.517572245, -33.373877805 ] } },
{ "type": "Feature", "properties": { "Site Holde": 31277446, "Oficinas C": "PAR4" }, "geometry": { "type": "Point", "coordinates": [ -70.936212222177204, -53.171552419939701 ] } },
{ "type": "Feature", "properties": { "Site Holde": 39895573, "Oficinas C": "OLIV" }, "geometry": { "type": "Point", "coordinates": [ -70.813742144629302, -34.209427110359798 ] } },
{ "type": "Feature", "properties": { "Site Holde": 95, "Oficinas C": "ECRM" }, "geometry": { "type": "Point", "coordinates": [ -70.787737005, -33.524429025 ] } },
{ "type": "Feature", "properties": { "Site Holde": 177, "Oficinas C": "PVAL" }, "geometry": { "type": "Point", "coordinates": [ -70.606990065, -33.443040225 ] } },
{ "type": "Feature", "properties": { "Site Holde": 37204334, "Oficinas C": "LOTA" }, "geometry": { "type": "Point", "coordinates": [ -73.155516099627704, -37.095304601233899 ] } },
{ "type": "Feature", "properties": { "Site Holde": 82, "Oficinas C": "CONC" }, "geometry": { "type": "Point", "coordinates": [ -70.672859025, -33.392754015 ] } },
{ "type": "Feature", "properties": { "Site Holde": 35763323, "Oficinas C": "LRED" }, "geometry": { "type": "Point", "coordinates": [ -73.0781162607569, -36.810831298629601 ] } },
{ "type": "Feature", "properties": { "Site Holde": 32610872, "Oficinas C": "CONS" }, "geometry": { "type": "Point", "coordinates": [ -72.410975047494404, -35.3313608554528 ] } },
{ "type": "Feature", "properties": { "Site Holde": 35289094, "Oficinas C": "SCAR" }, "geometry": { "type": "Point", "coordinates": [ -71.958337675226105, -36.422531078364699 ] } },
{ "type": "Feature", "properties": { "Site Holde": 77, "Oficinas C": "CHL4" }, "geometry": { "type": "Point", "coordinates": [ -72.094788343284094, -36.6005373828378 ] } },
{ "type": "Feature", "properties": { "Site Holde": 34653131, "Oficinas C": "CNTE" }, "geometry": { "type": "Point", "coordinates": [ -73.398424762695598, -37.8011004123898 ] } },
{ "type": "Feature", "properties": { "Site Holde": 21266892, "Oficinas C": "PENA" }, "geometry": { "type": "Point", "coordinates": [ -70.893054617784799, -33.6062591567973 ] } },
{ "type": "Feature", "properties": { "Site Holde": 26121313, "Oficinas C": "TEM5" }, "geometry": { "type": "Point", "coordinates": [ -72.567627071339402, -38.7226483794297 ] } },
{ "type": "Feature", "properties": { "Site Holde": 29209695, "Oficinas C": "EBEL" }, "geometry": { "type": "Point", "coordinates": [ -71.405029224496204, -33.047433967151598 ] } },
{ "type": "Feature", "properties": { "Site Holde": 70594779, "Oficinas C": "PINT" }, "geometry": { "type": "Point", "coordinates": [ -71.892697744295205, -36.701730744767701 ] } },
{ "type": "Feature", "properties": { "Site Holde": 39059506, "Oficinas C": "CHNC" }, "geometry": { "type": "Point", "coordinates": [ -72.534445874341102, -35.741032175456397 ] } },
{ "type": "Feature", "properties": { "Site Holde": 30059529, "Oficinas C": "LA MAYOR SUR 1942" }, "geometry": { "type": "Point", "coordinates": [ -73.174841500276003, -40.563384215959303 ] } },
{ "type": "Feature", "properties": { "Site Holde": 163, "Oficinas C": "NUNO" }, "geometry": { "type": "Point", "coordinates": [ -70.572391242304604, -33.448488792484198 ] } },
{ "type": "Feature", "properties": { "Site Holde": 37379379, "Oficinas C": "TAMA" }, "geometry": { "type": "Point", "coordinates": [ -70.265872049243001, -27.480346414833299 ] } },
{ "type": "Feature", "properties": { "Site Holde": 37149991, "Oficinas C": "ECOL" }, "geometry": { "type": "Point", "coordinates": [ -70.769287071812201, -33.288451646119398 ] } },
{ "type": "Feature", "properties": { "Site Holde": 62, "Oficinas C": "BNOR" }, "geometry": { "type": "Point", "coordinates": [ -73.021572892819094, -36.817649418929101 ] } },
{ "type": "Feature", "properties": { "Site Holde": 31948880, "Oficinas C": "SALA" }, "geometry": { "type": "Point", "coordinates": [ -70.966422454434394, -31.781855194198101 ] } },
{ "type": "Feature", "properties": { "Site Holde": 78, "Oficinas C": "CHOR" }, "geometry": { "type": "Point", "coordinates": [ -71.531580015, -33.033918015 ] } },
{ "type": "Feature", "properties": { "Site Holde": 31244330, "Oficinas C": "USMA" }, "geometry": { "type": "Point", "coordinates": [ -71.588485868856694, -33.041224941252899 ] } },
{ "type": "Feature", "properties": { "Site Holde": 30959533, "Oficinas C": "MLLC" }, "geometry": { "type": "Point", "coordinates": [ -70.856395770729804, -33.607492211674703 ] } },
{ "type": "Feature", "properties": { "Site Holde": 109, "Oficinas C": "IQU4" }, "geometry": { "type": "Point", "coordinates": [ -70.128869025, -20.244847005 ] } },
{ "type": "Feature", "properties": { "Site Holde": 37180087, "Oficinas C": "LIRQ" }, "geometry": { "type": "Point", "coordinates": [ -72.975520813416793, -36.717998067502002 ] } },
{ "type": "Feature", "properties": { "Site Holde": 181, "Oficinas C": "RAN3" }, "geometry": { "type": "Point", "coordinates": [ -70.746716592901805, -34.170190005 ] } },
{ "type": "Feature", "properties": { "Site Holde": 216, "Oficinas C": "UALP" }, "geometry": { "type": "Point", "coordinates": [ -73.092430041269395, -36.788150204678601 ] } },
{ "type": "Feature", "properties": { "Site Holde": 162, "Oficinas C": "MQUI" }, "geometry": { "type": "Point", "coordinates": [ -70.731475144739093, -33.3559845909923 ] } },
{ "type": "Feature", "properties": { "Site Holde": 54038405, "Oficinas C": "LICN" }, "geometry": { "type": "Point", "coordinates": [ -72.154588615850301, -39.490204433291098 ] } },
{ "type": "Feature", "properties": { "Site Holde": 37125839, "Oficinas C": "STCL" }, "geometry": { "type": "Point", "coordinates": [ -72.328412951033101, -36.823622732186202 ] } },
{ "type": "Feature", "properties": { "Site Holde": 160, "Oficinas C": "MCHA" }, "geometry": { "type": "Point", "coordinates": [ -70.653280846372098, -34.179611271885101 ] } },
{ "type": "Feature", "properties": { "Site Holde": 71274113, "Oficinas C": "CCAS" }, "geometry": { "type": "Point", "coordinates": [ -72.346813860513706, -51.2544393197782 ] } },
{ "type": "Feature", "properties": { "Site Holde": 41731415, "Oficinas C": "LTUE" }, "geometry": { "type": "Point", "coordinates": [ -71.727920277210799, -34.116570891361498 ] } },
{ "type": "Feature", "properties": { "Site Holde": 168, "Oficinas C": "PANS" }, "geometry": { "type": "Point", "coordinates": [ -70.698750409870797, -33.532465027564299 ] } },
{ "type": "Feature", "properties": { "Site Holde": 146, "Oficinas C": "LPIT" }, "geometry": { "type": "Point", "coordinates": [ -70.632000015, -33.582976005 ] } },
{ "type": "Feature", "properties": { "Site Holde": 29841363, "Oficinas C": "RNCA" }, "geometry": { "type": "Point", "coordinates": [ -71.493779383342599, -32.999297143653401 ] } },
{ "type": "Feature", "properties": { "Site Holde": 36971542, "Oficinas C": "QLLN" }, "geometry": { "type": "Point", "coordinates": [ -72.476071899801994, -36.743265318680898 ] } },
{ "type": "Feature", "properties": { "Site Holde": 193, "Oficinas C": "SFEL" }, "geometry": { "type": "Point", "coordinates": [ -70.727526506655806, -32.749783950374599 ] } },
{ "type": "Feature", "properties": { "Site Holde": 35917941, "Oficinas C": "PCHD" }, "geometry": { "type": "Point", "coordinates": [ -71.282612536244599, -34.358783161076701 ] } },
{ "type": "Feature", "properties": { "Site Holde": 34230700, "Oficinas C": "PANQ" }, "geometry": { "type": "Point", "coordinates": [ -70.835493870482296, -32.7705683750346 ] } },
{ "type": "Feature", "properties": { "Site Holde": 31027280, "Oficinas C": "CURA" }, "geometry": { "type": "Point", "coordinates": [ -71.127997556354899, -33.401839561389998 ] } },
{ "type": "Feature", "properties": { "Site Holde": 28882370, "Oficinas C": "GORB" }, "geometry": { "type": "Point", "coordinates": [ -72.6710661597116, -39.104158753251802 ] } },
{ "type": "Feature", "properties": { "Site Holde": 32179389, "Oficinas C": "MPSB" }, "geometry": { "type": "Point", "coordinates": [ -70.710698169910501, -33.632880917542799 ] } },
{ "type": "Feature", "properties": { "Site Holde": 104, "Oficinas C": "HUER" }, "geometry": { "type": "Point", "coordinates": [ -70.658574734579304, -33.440601814723898 ] } },
{ "type": "Feature", "properties": { "Site Holde": 116, "Oficinas C": "LAND" }, "geometry": { "type": "Point", "coordinates": [ -70.599046311897197, -32.8338547010284 ] } },
{ "type": "Feature", "properties": { "Site Holde": 71239119, "Oficinas C": "QULL" }, "geometry": { "type": "Point", "coordinates": [ -71.979874128466093, -37.4694805210884 ] } },
{ "type": "Feature", "properties": { "Site Holde": 41207179, "Oficinas C": "GALV" }, "geometry": { "type": "Point", "coordinates": [ -72.780440862945994, -38.4130554409927 ] } },
{ "type": "Feature", "properties": { "Site Holde": 33204344, "Oficinas C": "CATE" }, "geometry": { "type": "Point", "coordinates": [ -70.961731497827898, -32.777000025 ] } },
{ "type": "Feature", "properties": { "Site Holde": 37751359, "Oficinas C": "VENT" }, "geometry": { "type": "Point", "coordinates": [ -71.4857127969468, -32.743100059249599 ] } },
{ "type": "Feature", "properties": { "Site Holde": 32474185, "Oficinas C": "PARR" }, "geometry": { "type": "Point", "coordinates": [ -71.820798642487105, -36.141239885410698 ] } },
{ "type": "Feature", "properties": { "Site Holde": 29459834, "Oficinas C": "LABU" }, "geometry": { "type": "Point", "coordinates": [ -70.7511762836684, -33.756892984681002 ] } },
{ "type": "Feature", "properties": { "Site Holde": 29842587, "Oficinas C": "VRIC" }, "geometry": { "type": "Point", "coordinates": [ -72.224826969538597, -39.283877484761 ] } },
{ "type": "Feature", "properties": { "Site Holde": 49534784, "Oficinas C": "PUERTO YUNGAY" }, "geometry": { "type": "Point", "coordinates": [ -72.986191100193196, -41.478014805786998 ] } },
{ "type": "Feature", "properties": { "Site Holde": 68, "Oficinas C": "CDVA" }, "geometry": { "type": "Point", "coordinates": [ -70.844565188643799, -33.447649256215499 ] } },
{ "type": "Feature", "properties": { "Site Holde": 36955166, "Oficinas C": "YUGA" }, "geometry": { "type": "Point", "coordinates": [ -72.020253797866502, -37.120275692102098 ] } },
{ "type": "Feature", "properties": { "Site Holde": 37157836, "Oficinas C": "SEST" }, "geometry": { "type": "Point", "coordinates": [ -70.581032750059606, -32.799227250955802 ] } },
{ "type": "Feature", "properties": { "Site Holde": 41420482, "Oficinas C": "PURE" }, "geometry": { "type": "Point", "coordinates": [ -73.071431470233506, -38.0335133564882 ] } },
{ "type": "Feature", "properties": { "Site Holde": 213, "Oficinas C": "TORE" }, "geometry": { "type": "Point", "coordinates": [ -73.240125884600701, -39.815941346860598 ] } },
{ "type": "Feature", "properties": { "Site Holde": 39224044, "Oficinas C": "KENN" }, "geometry": { "type": "Point", "coordinates": [ -70.544718869472504, -33.391106259023204 ] } },
{ "type": "Feature", "properties": { "Site Holde": 31043335, "Oficinas C": "IMAI" }, "geometry": { "type": "Point", "coordinates": [ -70.902191368041997, -33.753791628050898 ] } },
{ "type": "Feature", "properties": { "Site Holde": 163, "Oficinas C": "NUNO" }, "geometry": { "type": "Point", "coordinates": [ -70.572391242304604, -33.448488792484198 ] } },
{ "type": "Feature", "properties": { "Site Holde": 30867840, "Oficinas C": "QYNT" }, "geometry": { "type": "Point", "coordinates": [ -71.674458247761507, -33.183413927676803 ] } },
{ "type": "Feature", "properties": { "Site Holde": 144, "Oficinas C": "LPIN" }, "geometry": { "type": "Point", "coordinates": [ -70.647810015, -33.384134025 ] } },
{ "type": "Feature", "properties": { "Site Holde": 35777317, "Oficinas C": "PCHL" }, "geometry": { "type": "Point", "coordinates": [ -72.003198087183705, -34.387756201642397 ] } },
{ "type": "Feature", "properties": { "Site Holde": 70629622, "Oficinas C": "OSN PUNTA PATACHE" }, "geometry": { "type": "Point", "coordinates": [ -70.186247162100301, -20.813062899807001 ] } },
{ "type": "Feature", "properties": { "Site Holde": 132, "Oficinas C": "LHER" }, "geometry": { "type": "Point", "coordinates": [ -70.537827795, -33.470461125 ] } },
{ "type": "Feature", "properties": { "Site Holde": 30491342, "Oficinas C": "SFMO" }, "geometry": { "type": "Point", "coordinates": [ -70.712818105844605, -33.980863790577096 ] } },
{ "type": "Feature", "properties": { "Site Holde": 70611863, "Oficinas C": "MLLO" }, "geometry": { "type": "Point", "coordinates": [ -70.9456916283753, -34.442317513417599 ] } },
{ "type": "Feature", "properties": { "Site Holde": 30095035, "Oficinas C": "LAUT" }, "geometry": { "type": "Point", "coordinates": [ -72.434072585085104, -38.532077175972702 ] } },
{ "type": "Feature", "properties": { "Site Holde": 220, "Oficinas C": "VPER" }, "geometry": { "type": "Point", "coordinates": [ -72.950107035, -41.473516995 ] } },
{ "type": "Feature", "properties": { "Site Holde": 44458907, "Oficinas C": "PIDU" }, "geometry": { "type": "Point", "coordinates": [ -71.689517404806395, -35.444847082961999 ] } },
{ "type": "Feature", "properties": { "Site Holde": 39987496, "Oficinas C": "OLMU" }, "geometry": { "type": "Point", "coordinates": [ -71.184098310223902, -32.994976254130997 ] } },
{ "type": "Feature", "properties": { "Site Holde": 31262665, "Oficinas C": "FORE" }, "geometry": { "type": "Point", "coordinates": [ -71.541257565614103, -33.042023102752303 ] } },
{ "type": "Feature", "properties": { "Site Holde": 70775791, "Oficinas C": "SLTO" }, "geometry": { "type": "Point", "coordinates": [ -72.376381104709907, -37.221489688200101 ] } },
{ "type": "Feature", "properties": { "Site Holde": 29845035, "Oficinas C": "PUCN" }, "geometry": { "type": "Point", "coordinates": [ -71.974293399090499, -39.2747197191472 ] } },
{ "type": "Feature", "properties": { "Site Holde": 36925728, "Oficinas C": "SJUA" }, "geometry": { "type": "Point", "coordinates": [ -72.937866386574797, -37.173835072304101 ] } },
{ "type": "Feature", "properties": { "Site Holde": 37618069, "Oficinas C": "FREI" }, "geometry": { "type": "Point", "coordinates": [ -71.077981401739905, -28.5089046999713 ] } },
{ "type": "Feature", "properties": { "Site Holde": 182, "Oficinas C": "RAN4" }, "geometry": { "type": "Point", "coordinates": [ -70.713887214660602, -34.177104642840398 ] } },
{ "type": "Feature", "properties": { "Site Holde": 202, "Oficinas C": "SRAM" }, "geometry": { "type": "Point", "coordinates": [ -70.632236025, -33.554620005 ] } },
{ "type": "Feature", "properties": { "Site Holde": 118, "Oficinas C": "LBEN" }, "geometry": { "type": "Point", "coordinates": [ -70.506770025, -33.391071015 ] } },
{ "type": "Feature", "properties": { "Site Holde": 188, "Oficinas C": "RENC" }, "geometry": { "type": "Point", "coordinates": [ -70.699190430622707, -33.403596196747699 ] } },
{ "type": "Feature", "properties": { "Site Holde": 34871619, "Oficinas C": "SJAV" }, "geometry": { "type": "Point", "coordinates": [ -71.728685970330005, -35.5954794461083 ] } },
{ "type": "Feature", "properties": { "Site Holde": 203, "Oficinas C": "SROS" }, "geometry": { "type": "Point", "coordinates": [ -70.639316055952506, -33.5158872094893 ] } },
{ "type": "Feature", "properties": { "Site Holde": 65, "Oficinas C": "CAL3" }, "geometry": { "type": "Point", "coordinates": [ -68.927958763193999, -22.4566388769687 ] } },
{ "type": "Feature", "properties": { "Site Holde": 70891013, "Oficinas C": "INCA2" }, "geometry": { "type": "Point", "coordinates": [ -71.011693747020104, -29.226888280900098 ] } },
{ "type": "Feature", "properties": { "Site Holde": 141, "Oficinas C": "LONC" }, "geometry": { "type": "Point", "coordinates": [ -73.052927466706606, -36.844300377407798 ] } },
{ "type": "Feature", "properties": { "Site Holde": 187, "Oficinas C": "RENA" }, "geometry": { "type": "Point", "coordinates": [ -71.540399979243105, -32.973599990098698 ] } },
{ "type": "Feature", "properties": { "Site Holde": 71550375, "Oficinas C": "RSEC" }, "geometry": { "type": "Point", "coordinates": [ -70.852558433071906, -53.0497350476208 ] } },
{ "type": "Feature", "properties": { "Site Holde": 35017025, "Oficinas C": "RAMA" }, "geometry": { "type": "Point", "coordinates": [ -71.594097825657002, -33.061031974780697 ] } },
{ "type": "Feature", "properties": { "Site Holde": 209, "Oficinas C": "TEM3" }, "geometry": { "type": "Point", "coordinates": [ -72.629757688765807, -38.736348448376198 ] } },
{ "type": "Feature", "properties": { "Site Holde": 71479964, "Oficinas C": "TALT" }, "geometry": { "type": "Point", "coordinates": [ -70.483517227641698, -25.4049884699578 ] } },
{ "type": "Feature", "properties": { "Site Holde": 49728032, "Oficinas C": "ESPA�A S/N" }, "geometry": { "type": "Point", "coordinates": [ -73.228098863944993, -39.813644276719998 ] } },
{ "type": "Feature", "properties": { "Site Holde": 36629095, "Oficinas C": "PUCH" }, "geometry": { "type": "Point", "coordinates": [ -71.416270268861695, -32.725044270511198 ] } },
{ "type": "Feature", "properties": { "Site Holde": 31296736, "Oficinas C": "TOCO" }, "geometry": { "type": "Point", "coordinates": [ -70.197021352532602, -22.090674147959099 ] } },
{ "type": "Feature", "properties": { "Site Holde": 138, "Oficinas C": "LNAC" }, "geometry": { "type": "Point", "coordinates": [ -70.790846025, -33.509889015 ] } },
{ "type": "Feature", "properties": { "Site Holde": 70584228, "Oficinas C": "SBAR" }, "geometry": { "type": "Point", "coordinates": [ -72.023614361633506, -37.669879897076299 ] } },
{ "type": "Feature", "properties": { "Site Holde": 31827179, "Oficinas C": "CCHA" }, "geometry": { "type": "Point", "coordinates": [ -71.448588834008007, -32.5778860475355 ] } },
{ "type": "Feature", "properties": { "Site Holde": 30020981, "Oficinas C": "RECOLETA 2067" }, "geometry": { "type": "Point", "coordinates": [ -73.174909913972897, -40.571620821698303 ] } },
{ "type": "Feature", "properties": { "Site Holde": 140, "Oficinas C": "LOMI" }, "geometry": { "type": "Point", "coordinates": [ -70.711228005, -33.623216025 ] } },
{ "type": "Feature", "properties": { "Site Holde": 31176894, "Oficinas C": "EAMA" }, "geometry": { "type": "Point", "coordinates": [ -71.302763756122602, -29.971107908148699 ] } },
{ "type": "Feature", "properties": { "Site Holde": 149, "Oficinas C": "LREJ" }, "geometry": { "type": "Point", "coordinates": [ -70.697684025, -33.456017025 ] } },
{ "type": "Feature", "properties": { "Site Holde": 81, "Oficinas C": "CON2" }, "geometry": { "type": "Point", "coordinates": [ -73.054051245, -36.821412015 ] } },
{ "type": "Feature", "properties": { "Site Holde": 110, "Oficinas C": "IQU5" }, "geometry": { "type": "Point", "coordinates": [ -70.124085015, -20.264364015 ] } },
{ "type": "Feature", "properties": { "Site Holde": 172, "Oficinas C": "PNOR" }, "geometry": { "type": "Point", "coordinates": [ -70.734017312133304, -33.296081310864203 ] } },
{ "type": "Feature", "properties": { "Site Holde": 30828143, "Oficinas C": "VIND" }, "geometry": { "type": "Point", "coordinates": [ -71.499565765677005, -33.018525227202097 ] } },
{ "type": "Feature", "properties": { "Site Holde": 196, "Oficinas C": "SINE" }, "geometry": { "type": "Point", "coordinates": [ -70.563015015, -33.540918015 ] } },
{ "type": "Feature", "properties": { "Site Holde": 166, "Oficinas C": "PALT" }, "geometry": { "type": "Point", "coordinates": [ -70.576927005, -33.606206025 ] } },
{ "type": "Feature", "properties": { "Site Holde": 35835438, "Oficinas C": "CARA" }, "geometry": { "type": "Point", "coordinates": [ -73.215435847360993, -37.212541728847 ] } },
{ "type": "Feature", "properties": { "Site Holde": 30860520, "Oficinas C": "PAPU" }, "geometry": { "type": "Point", "coordinates": [ -71.446577175354506, -32.509366575143098 ] } },
{ "type": "Feature", "properties": { "Site Holde": 37166677, "Oficinas C": "SGGR" }, "geometry": { "type": "Point", "coordinates": [ -71.814722013434306, -36.281679532601302 ] } },
{ "type": "Feature", "properties": { "Site Holde": 37796513, "Oficinas C": "INDP" }, "geometry": { "type": "Point", "coordinates": [ -70.931255502725605, -53.151970992637096 ] } },
{ "type": "Feature", "properties": { "Site Holde": 45548895, "Oficinas C": "MINI" }, "geometry": { "type": "Point", "coordinates": [ -72.482594846665904, -37.795344766040898 ] } },
{ "type": "Feature", "properties": { "Site Holde": 31153291, "Oficinas C": "COPI" }, "geometry": { "type": "Point", "coordinates": [ -70.782068734217901, -33.5919095071527 ] } },
{ "type": "Feature", "properties": { "Site Holde": 30671462, "Oficinas C": "RINC" }, "geometry": { "type": "Point", "coordinates": [ -70.688036199931503, -32.835873680554201 ] } },
{ "type": "Feature", "properties": { "Site Holde": 34828848, "Oficinas C": "LMIR" }, "geometry": { "type": "Point", "coordinates": [ -70.889257036350301, -34.196517721164199 ] } },
{ "type": "Feature", "properties": { "Site Holde": 40663479, "Oficinas C": "PAIL" }, "geometry": { "type": "Point", "coordinates": [ -72.873782999910404, -40.072277600992003 ] } },
{ "type": "Feature", "properties": { "Site Holde": 39095800, "Oficinas C": "ZAPA" }, "geometry": { "type": "Point", "coordinates": [ -71.458926680428903, -32.555558071530697 ] } },
{ "type": "Feature", "properties": { "Site Holde": 30134901, "Oficinas C": "MEJI" }, "geometry": { "type": "Point", "coordinates": [ -70.448167842386795, -23.100102586833302 ] } },
{ "type": "Feature", "properties": { "Site Holde": 56, "Oficinas C": "ANT6" }, "geometry": { "type": "Point", "coordinates": [ -70.393238025, -23.571867015 ] } },
{ "type": "Feature", "properties": { "Site Holde": 30941953, "Oficinas C": "LCAL" }, "geometry": { "type": "Point", "coordinates": [ -71.189178315445801, -32.787879056633599 ] } },
{ "type": "Feature", "properties": { "Site Holde": 40660621, "Oficinas C": "REQN" }, "geometry": { "type": "Point", "coordinates": [ -70.816653231993996, -34.2841376574886 ] } },
{ "type": "Feature", "properties": { "Site Holde": 34106495, "Oficinas C": "LPNO" }, "geometry": { "type": "Point", "coordinates": [ -71.423184173971805, -33.067318628515601 ] } },
{ "type": "Feature", "properties": { "Site Holde": 30536347, "Oficinas C": "BATU" }, "geometry": { "type": "Point", "coordinates": [ -70.806464500493703, -33.232794070607603 ] } },
{ "type": "Feature", "properties": { "Site Holde": 35689502, "Oficinas C": "ARAU" }, "geometry": { "type": "Point", "coordinates": [ -73.3204176188829, -37.246729389817901 ] } },
{ "type": "Feature", "properties": { "Site Holde": 54370602, "Oficinas C": "TSCH" }, "geometry": { "type": "Point", "coordinates": [ -73.087284167469704, -38.995013620136 ] } },
{ "type": "Feature", "properties": { "Site Holde": 31239448, "Oficinas C": "CERR" }, "geometry": { "type": "Point", "coordinates": [ -71.027357064590902, -33.449573431064898 ] } },
{ "type": "Feature", "properties": { "Site Holde": 50056136, "Oficinas C": "CALB" }, "geometry": { "type": "Point", "coordinates": [ -73.137275734878003, -41.775707942427097 ] } },
{ "type": "Feature", "properties": { "Site Holde": 214, "Oficinas C": "TRIN" }, "geometry": { "type": "Point", "coordinates": [ -70.603179106759598, -33.546548025 ] } },
{ "type": "Feature", "properties": { "Site Holde": 33430061, "Oficinas C": "LLIG" }, "geometry": { "type": "Point", "coordinates": [ -71.232639560826499, -32.449660072994497 ] } },
{ "type": "Feature", "properties": { "Site Holde": 129, "Oficinas C": "LFLR" }, "geometry": { "type": "Point", "coordinates": [ -71.215813995, -29.919222825 ] } },
{ "type": "Feature", "properties": { "Site Holde": 35239728, "Oficinas C": "ANDL" }, "geometry": { "type": "Point", "coordinates": [ -73.031095885526199, -36.800168033706399 ] } },
{ "type": "Feature", "properties": { "Site Holde": 199, "Oficinas C": "SLUI" }, "geometry": { "type": "Point", "coordinates": [ -70.747362015, -33.364761765 ] } },
{ "type": "Feature", "properties": { "Site Holde": 143, "Oficinas C": "LPAR" }, "geometry": { "type": "Point", "coordinates": [ -70.789880025, -33.558086025 ] } },
{ "type": "Feature", "properties": { "Site Holde": 71000859, "Oficinas C": "PWLL" }, "geometry": { "type": "Point", "coordinates": [ -67.605353182660906, -54.934998094484499 ] } },
{ "type": "Feature", "properties": { "Site Holde": 73, "Oficinas C": "CHI1" }, "geometry": { "type": "Point", "coordinates": [ -73.029618211604202, -36.909993089119197 ] } },
{ "type": "Feature", "properties": { "Site Holde": 88, "Oficinas C": "CURI" }, "geometry": { "type": "Point", "coordinates": [ -71.241625653073001, -34.985426062990399 ] } },
{ "type": "Feature", "properties": { "Site Holde": 155, "Oficinas C": "LSUR" }, "geometry": { "type": "Point", "coordinates": [ -70.738464015, -33.462460005 ] } },
{ "type": "Feature", "properties": { "Site Holde": 74, "Oficinas C": "CHI2" }, "geometry": { "type": "Point", "coordinates": [ -73.0213524647247, -36.933872964155199 ] } },
{ "type": "Feature", "properties": { "Site Holde": 31724704, "Oficinas C": "EPEU" }, "geometry": { "type": "Point", "coordinates": [ -68.908831925499896, -22.480041245684099 ] } },
{ "type": "Feature", "properties": { "Site Holde": 39977701, "Oficinas C": "SJMA" }, "geometry": { "type": "Point", "coordinates": [ -70.353154333272002, -33.640955046162297 ] } },
{ "type": "Feature", "properties": { "Site Holde": 30680891, "Oficinas C": "LBRI" }, "geometry": { "type": "Point", "coordinates": [ -71.628040520719793, -33.698348296489499 ] } },
{ "type": "Feature", "properties": { "Site Holde": 36476959, "Oficinas C": "NGRT" }, "geometry": { "type": "Point", "coordinates": [ -72.531341107088195, -37.5851618819799 ] } },
{ "type": "Feature", "properties": { "Site Holde": 30973763, "Oficinas C": "NOGA" }, "geometry": { "type": "Point", "coordinates": [ -71.201440786455095, -32.7335329274364 ] } },
{ "type": "Feature", "properties": { "Site Holde": 42922809, "Oficinas C": "LLA1" }, "geometry": { "type": "Point", "coordinates": [ -73.003378262335005, -41.258570886253601 ] } },
{ "type": "Feature", "properties": { "Site Holde": 151, "Oficinas C": "LSE1" }, "geometry": { "type": "Point", "coordinates": [ -71.252225971042805, -29.903496449084901 ] } }
]
}
